[{"OBJECT_NAME":"GLOBALSTAR M079","OBJECT_ID":"2010-054A","EPOCH":"2026-03-09T23:48:22.998240","MEAN_MOTION":12.62263858,"ECCENTRICITY":5.511e-5,"INCLINATION":52.005,"RA_OF_ASC_NODE":50.6327,"ARG_OF_PERICENTER":110.1907,"MEAN_ANOMALY":284.8989,"EPHEMERIS_TYPE":0,"CLASSIFICATION_TYPE":"U","NORAD_CAT_ID":37188,"ELEMENT_SET_NO":999,"REV_AT_EPOCH":71002,"BSTAR":-3.7051302e-5,"MEAN_MOTION_DOT":-1.1e-6,"MEAN_MOTION_DDOT":0},{"OBJECT_NAME":"SL-8 R\/B","OBJECT_ID":"1974-069B","EPOCH":"2026-03-09T22:40:03.675072","MEAN_MOTION":12.68858347,"ECCENTRICITY":0.00439699,"INCLINATION":74.0551,"RA_OF_ASC_NODE":286.2677,"ARG_OF_PERICENTER":9.3563,"MEAN_ANOMALY":95.5395,"EPHEMERIS_TYPE":0,"CLASSIFICATION_TYPE":"U","NORAD_CAT_ID":7426,"ELEMENT_SET_NO":999,"REV_AT_EPOCH":77151,"BSTAR":0.00039399405,"MEAN_MOTION_DOT":6.1e-7,"MEAN_MOTION_DDOT":0}]
